OBJECT_NAME,OBJECT_ID,EPOCH,MEAN_MOTION,ECCENTRICITY,INCLINATION,RA_OF_ASC_NODE,ARG_OF_PERICENTER,MEAN_ANOMALY,EPHEMERIS_TYPE,CLASSIFICATION_TYPE,NORAD_CAT_ID,ELEMENT_SET_NO,REV_AT_EPOCH,BSTAR,MEAN_MOTION_DOT,MEAN_MOTION_DDOT
SVYATOBOR 1 (RS60S),2023-091X,2026-06-26T13:30:56.165184,15.26766844,.00105264,97.5092,241.4322,66.2529,293.9813,0,U,57187,999,16574,.33580157E-3,.8777E-4,0
HORS 1,2023-091Y,2026-06-26T14:43:31.759392,15.26878067,.00099586,97.5069,241.2440,66.1467,294.0815,0,U,57188,999,16575,.33809502E-3,.8866E-4,0
VIZARD-METEO (RS38S),2023-091Z,2026-06-26T14:13:43.195584,15.36312684,.00075211,97.5095,247.2673,48.8055,311.3836,0,U,57189,999,16613,.45471695E-3,.16045E-3,0
SITRO-AIS 6 (CHIRKIN),2023-091AC,2026-06-26T13:21:34.767360,15.26105071,.00128643,97.5070,240.6148,77.5614,282.7062,0,U,57192,999,16571,.39103043E-3,.10039E-3,0
SITRO-AIS 8 (ANOKHIN),2023-091AD,2026-06-26T14:55:27.573024,15.32378875,.00113496,97.5059,243.2388,70.6472,289.5995,0,U,57193,999,16589,.46206848E-3,.14405E-3,0
SITRO-AIS 7 (FARTUSHNIY),2023-091AE,2026-06-26T13:28:53.180832,15.25789615,.00127594,97.5068,240.4401,78.5329,281.7341,0,U,57194,999,16570,.39342086E-3,.10005E-3,0
AVION KALUGA 650,2023-091AF,2026-06-26T13:46:02.545248,15.20447295,.00118225,97.5091,237.1119,81.0841,279.1732,0,U,57195,999,16545,.28716806E-3,.6208E-4,0
HORS 2,2023-091AG,2026-06-26T13:40:29.080128,15.32116336,.00087446,97.5092,244.7279,59.4789,300.7315,0,U,57196,999,16596,.43567504E-3,.13454E-3,0
A-SEANSAT-PG1,2023-091AH,2026-06-26T13:56:24.118080,15.37271313,.00075464,97.5084,247.3635,56.5691,303.6274,0,U,57197,999,16615,.45013191E-3,.16381E-3,0
SITRO-AIS 10 (BURDAEV),2023-091AK,2026-06-26T13:09:42.989472,15.38951162,.00066961,97.5084,248.3155,51.5264,308.6580,0,U,57199,999,16620,.49453259E-3,.19018E-3,0
SITRO-AIS 9 (SHCHUKIN),2023-091AM,2026-06-26T12:18:24.734592,15.38449794,.00069927,97.5083,248.0017,51.6988,308.4885,0,U,57201,999,16618,.4861463E-3,.18391E-3,0
UTMN 2 (RS27S),2023-091AP,2026-06-26T14:18:17.323776,15.32270931,.00086471,97.5090,244.9481,55.2376,304.9678,0,U,57203,999,16598,.43209105E-3,.13407E-3,0
SITRO-AIS 12 (SMIRENNIY),2023-091AQ,2026-06-26T13:35:59.472384,15.38744981,.00064668,97.5095,248.5299,46.2913,313.8867,0,U,57204,999,16621,.48192901E-3,.18404E-3,0
SITRO-AIS 11 (SHEFFER),2023-091AU,2026-06-26T13:51:33.440832,15.39175463,.00063394,97.5094,248.7935,45.8256,314.3510,0,U,57208,999,16623,.47341336E-3,.18333E-3,0
H2SAT (HEINRICH HERTZ),2023-093A,2026-06-25T07:28:10.234848,1.00269986,.0000848,0.0482,107.4304,17.0766,261.6799,0,U,57213,999,1099,0,.11E-6,0
KUZGTU 1 (RS47S),2023-091AV,2026-06-26T13:59:33.852480,15.30065781,.00119001,97.5067,242.1591,68.8362,291.4149,0,U,57217,999,16581,.44363377E-3,.12866E-3,0
QIANKUN-1,2023-103B,2026-06-24T03:24:20.703456,16.07644797,.00336534,96.1516,219.4975,146.3074,214.0360,0,U,57422,999,16841,.35190923E-4,.29952E-3,.2050203E-5
FENGYUN 3F,2023-111A,2026-06-26T15:04:15.583296,14.19940511,.00015534,98.6834,247.4607,86.3501,273.7854,0,U,57490,999,15020,.34108829E-4,.29E-6,0
HJ-2F,2023-116A,2026-06-26T14:03:45.058752,15.22447703,.00088105,97.3840,182.6409,23.0997,337.0634,0,U,57519,999,16018,.34410612E-3,.7901E-4,0
XRISM,2023-137A,2026-06-26T15:03:53.851104,15.12542851,.00078282,31.0027,298.4476,58.7511,301.3894,0,U,57800,999,15429,.26042106E-3,.4753E-4,0
METEOR-M2 4,2024-039A,2026-06-26T14:37:20.379360,14.22430414,.00077891,98.7014,136.7890,135.6504,224.5299,0,U,59051,999,12060,.20464704E-4,.2E-7,0
GRBBETA,2024-128C,2026-06-26T13:52:03.578016,15.06690888,.00394513,61.9878,183.3174,136.6258,223.7951,0,U,60237,999,10768,.22892756E-3,.3256E-4,0
TRANSPORTER-11 OBJECT A,2024-149A,2026-06-26T11:42:27.937440,15.33050383,.00037135,97.3735,257.3888,164.2670,195.8689,0,U,60468,999,10348,.29008625E-3,.9186E-4,0
WARATAH SEED-1,2024-149B,2026-06-26T11:48:19.936224,15.36166347,.00022932,97.3692,258.0758,156.4724,203.6626,0,U,60469,999,10354,.3902128E-3,.13679E-3,0
PHISAT 2,2024-149C,2026-06-26T10:59:54.793248,15.31180116,.00019708,97.3760,256.6231,155.6833,204.4501,0,U,60470,999,10341,.25722087E-3,.7671E-4,0
LEMUR-2-TOMATOKECHUP,2024-149D,2026-06-26T11:42:17.938368,15.36216015,.00022463,97.3804,259.5586,157.4796,202.6547,0,U,60471,999,10359,.31985602E-3,.11213E-3,0
CONNECTA IOT-1,2024-149E,2026-06-26T11:42:18.455040,15.23606599,.00010381,97.3761,253.6218,186.0280,174.0945,0,U,60472,999,10321,.18889378E-3,.4452E-4,0
LOPEN,2024-149F,2026-06-26T11:43:08.427936,15.39942800,.00016262,97.3782,260.9297,166.6233,193.5056,0,U,60473,999,10369,.40245745E-3,.15957E-3,0
ROCK,2024-149G,2026-06-26T11:23:51.589824,15.39934030,.00019525,97.3777,260.9314,166.5493,193.5805,0,U,60474,999,10369,.38511555E-3,.1526E-3,0
