SVYATOBOR 1 (RS60S)     
1 57187U 23091X   26177.56315006  .00008777  00000+0  33580-3 0  9992
2 57187  97.5092 241.4322 0010526  66.2529 293.9813 15.26766844165741
HORS 1                  
1 57188U 23091Y   26177.61356203  .00008866  00000+0  33810-3 0  9998
2 57188  97.5069 241.2440 0009958  66.1467 294.0815 15.26878067165758
VIZARD-METEO (RS38S)    
1 57189U 23091Z   26177.59286106  .00016045  00000+0  45472-3 0  9995
2 57189  97.5095 247.2673 0007521  48.8055 311.3836 15.36312684166134
SITRO-AIS 6 (CHIRKIN)   
1 57192U 23091AC  26177.55665240  .00010039  00000+0  39103-3 0  9996
2 57192  97.5070 240.6148 0012864  77.5614 282.7062 15.26105071165715
SITRO-AIS 8 (ANOKHIN)   
1 57193U 23091AD  26177.62184691  .00014405  00000+0  46207-3 0  9995
2 57193  97.5059 243.2388 0011349  70.6472 289.5995 15.32378875165891
SITRO-AIS 7 (FARTUSHNIY)
1 57194U 23091AE  26177.56172663  .00010005  00000+0  39342-3 0  9999
2 57194  97.5068 240.4401 0012759  78.5329 281.7341 15.25789615165700
AVION KALUGA 650        
1 57195U 23091AF  26177.57364057  .00006208  00000+0  28717-3 0  9995
2 57195  97.5091 237.1119 0011822  81.0841 279.1732 15.20447295165451
HORS 2                  
1 57196U 23091AG  26177.56978102  .00013454  00000+0  43568-3 0  9999
2 57196  97.5092 244.7279 0008744  59.4789 300.7315 15.32116336165969
A-SEANSAT-PG1           
1 57197U 23091AH  26177.58083470  .00016381  00000+0  45013-3 0  9996
2 57197  97.5084 247.3635 0007546  56.5691 303.6274 15.37271313166155
SITRO-AIS 10 (BURDAEV)  
1 57199U 23091AK  26177.54841423  .00019018  00000+0  49453-3 0  9996
2 57199  97.5084 248.3155 0006696  51.5264 308.6580 15.38951162166200
SITRO-AIS 9 (SHCHUKIN)  
1 57201U 23091AM  26177.51278628  .00018391  00000+0  48615-3 0  9990
2 57201  97.5083 248.0017 0006992  51.6988 308.4885 15.38449794166186
UTMN 2 (RS27S)          
1 57203U 23091AP  26177.59603384  .00013407  00000+0  43209-3 0  9998
2 57203  97.5090 244.9481 0008647  55.2376 304.9678 15.32270931165983
SITRO-AIS 12 (SMIRENNIY)
1 57204U 23091AQ  26177.56666056  .00018404  00000+0  48193-3 0  9990
2 57204  97.5095 248.5299 0006466  46.2913 313.8867 15.38744981166213
SITRO-AIS 11 (SHEFFER)  
1 57208U 23091AU  26177.57747038  .00018333  00000+0  47341-3 0  9990
2 57208  97.5094 248.7935 0006339  45.8256 314.3510 15.39175463166236
H2SAT (HEINRICH HERTZ)  
1 57213U 23093A   26176.31122957  .00000011  00000+0  00000+0 0  9997
2 57213   0.0482 107.4304 0000848  17.0766 261.6799  1.00269986 10990
KUZGTU 1 (RS47S)        
1 57217U 23091AV  26177.58303070  .00012866  00000+0  44363-3 0  9991
2 57217  97.5067 242.1591 0011900  68.8362 291.4149 15.30065781165813
QIANKUN-1               
1 57422U 23103B   26175.14190629  .00029952  20502-5  35191-4 0  9996
2 57422  96.1516 219.4975 0033653 146.3074 214.0360 16.07644797168419
FENGYUN 3F              
1 57490U 23111A   26177.62795814  .00000029  00000+0  34109-4 0  9999
2 57490  98.6834 247.4607 0001553  86.3501 273.7854 14.19940511150201
HJ-2F                   
1 57519U 23116A   26177.58593818  .00007901  00000+0  34411-3 0  9992
2 57519  97.3840 182.6409 0008810  23.0997 337.0634 15.22447703160184
XRISM                   
1 57800U 23137A   26177.62770661  .00004753  00000+0  26042-3 0  9999
2 57800  31.0027 298.4476 0007828  58.7511 301.3894 15.12542851154290
METEOR-M2 4             
1 59051U 24039A   26177.60926365  .00000002  00000+0  20465-4 0  9990
2 59051  98.7014 136.7890 0007789 135.6504 224.5299 14.22430414120607
GRBBETA                 
1 60237U 24128C   26177.57781919  .00003256  00000+0  22893-3 0  9997
2 60237  61.9878 183.3174 0039451 136.6258 223.7951 15.06690888107681
TRANSPORTER-11 OBJECT A 
1 60468U 24149A   26177.48782335  .00009186  00000+0  29009-3 0  9993
2 60468  97.3735 257.3888 0003713 164.2670 195.8689 15.33050383103484
WARATAH SEED-1          
1 60469U 24149B   26177.49189741  .00013679  00000+0  39021-3 0  9994
2 60469  97.3692 258.0758 0002293 156.4724 203.6626 15.36166347103543
PHISAT 2                
1 60470U 24149C   26177.45827307  .00007671  00000+0  25722-3 0  9997
2 60470  97.3760 256.6231 0001970 155.6833 204.4501 15.31180116103416
LEMUR-2-TOMATOKECHUP    
1 60471U 24149D   26177.48770762  .00011213  00000+0  31986-3 0  9999
2 60471  97.3804 259.5586 0002246 157.4796 202.6547 15.36216015103598
CONNECTA IOT-1          
1 60472U 24149E   26177.48771360  .00004452  00000+0  18889-3 0  9999
2 60472  97.3761 253.6218 0001038 186.0280 174.0945 15.23606599103211
LOPEN                   
1 60473U 24149F   26177.48829199  .00015957  00000+0  40246-3 0  9998
2 60473  97.3782 260.9297 0001626 166.6233 193.5056 15.39942800103694
ROCK                    
1 60474U 24149G   26177.47490266  .00015260  00000+0  38512-3 0  9997
2 60474  97.3777 260.9314 0001952 166.5493 193.5805 15.39934030103696
